FLOCK 4G-36             
1 62675U 25009BU  26068.70726311  .00013573  00000+0  51122-3 0  9993
2 62675  97.4053 151.0513 0003474 324.2456  35.8550 15.27209548 63701
STARLINK-35695          
1 66558U 25268B   26068.15483160  .00032128  00000+0  11712-2 0  9992
2 66558  43.0083 350.4619 0004164 256.8745 103.1642 15.27597305 17874
